*******************************************************************************
JPL/HORIZONS            79360 Sila-Nunam (1997 CS29)       2024-May-13 03:29:43
Rec #:   79360 (+COV) Soln.date: 2024-Feb-22_01:39:00    # obs: 546 (1997-2024)
 
IAU76/J2000 helio. ecliptic osc. elements (au, days, deg., period=Julian yrs):
 
  EPOCH=  2457469.5 ! 2016-Mar-22.00 (TDB)         Residual RMS= .14585
   EC= .01638916709502933  QR= 43.38005347728114   TP= 2466114.2123005944
   OM= 304.3467872918259   W=  223.8255898261761   IN= 2.241789831130051
   A= 44.10286266283141    MA= 330.9092814629059   ADIST= 44.82567184838169
   PER= 292.89258          N= .003365146           ANGMOM= .114223772
   DAN= 44.61859           DDN= 43.57578           L= 168.1504619
   B= -1.5521558           MOID= 42.38740158       TP= 2039-Nov-21.7123005944
 
Asteroid physical parameters (km, seconds, rotational period in hours):
   GM= n.a.                RAD= n.a.               ROTPER= 300.24
   H= 5.28                 G= .150                 B-V= n.a.
                           ALBEDO= n.a.            STYP= n.a.

ASTEROID comments: 
1: soln ref.= JPL#29, OCC=2
2: source=ORB
*******************************************************************************


*******************************************************************************
Ephemeris / WWW_USER Mon May 13 03:29:43 2024 Pasadena, USA      / Horizons
*******************************************************************************
Target body name: 79360 Sila-Nunam (1997 CS29)    {source: JPL#29}
Center body name: Sun (10)                        {source: DE441}
Center-site name: BODY CENTER
*******************************************************************************
Start time      : A.D. 1900-Jan-01 00:00:00.0000 TDB
Stop  time      : A.D. 2300-Jan-01 00:00:00.0000 TDB
Step-size       : 1 calendar years
*******************************************************************************
Center geodetic : 0.0, 0.0, 0.0                   {E-lon(deg),Lat(deg),Alt(km)}
Center cylindric: 0.0, 0.0, 0.0                   {E-lon(deg),Dxy(km),Dz(km)}
Center radii    : 695700.0, 695700.0, 695700.0 km {Equator_a, b, pole_c}
Small perturbers: Yes                             {source: SB441-N16}
Output units    : AU-D
Calendar mode   : Mixed Julian/Gregorian
Output type     : GEOMETRIC cartesian states
Output format   : 1x (position w/uncertainties: XYZ)
Reference frame : Ecliptic of J2000.0
*******************************************************************************
Initial IAU76/J2000 heliocentric ecliptic osculating elements (au, days, deg.):
  EPOCH=  2457469.5 ! 2016-Mar-22.00 (TDB)         Residual RMS= .14585        
   EC= .01638916709502933  QR= 43.38005347728114   TP= 2466114.2123005944      
   OM= 304.3467872918259   W=  223.8255898261761   IN= 2.241789831130051       
  Equivalent ICRF heliocentric cartesian coordinates (au, au/d):
   X=-3.237803628724799E+01  Y= 2.677622557858265E+01  Z= 1.116662821044414E+01
  VX=-1.735454943252472E-03 VY=-1.768061975952623E-03 VZ=-8.751151715883310E-04
Asteroid physical parameters (km, seconds, rotational period in hours):        
   GM= n.a.                RAD= n.a.               ROTPER= 300.24              
   H= 5.28                 G= .150                 B-V= n.a.                   
                           ALBEDO= n.a.            STYP= n.a.                  
*******************************************************************************
            JDTDB             Calendar Date (TDB),                      X,                      Y,                      Z,             X_s,             Y_s,             Z_s,
*****************************************************************************************************************************************************************************
$$SOE
2530071.500000000, A.D. 2215-Jan-01 00:00:00.0000,  4.016639788696259E+01,  1.852788393452603E+01,  1.709452470229237E+00,  3.83091848E-03,  5.63566707E-03,  2.54130099E-05,
2530436.500000000, A.D. 2216-Jan-01 00:00:00.0000,  3.975567425114571E+01,  1.937384332874365E+01,  1.715028755222777E+00,  3.95545343E-03,  5.59172410E-03,  2.59805339E-05,
2530802.500000000, A.D. 2217-Jan-01 00:00:00.0000,  3.932633751152996E+01,  2.021203312419293E+01,  1.719823789555083E+00,  4.07989293E-03,  5.54444459E-03,  2.74850636E-05,
2531167.500000000, A.D. 2218-Jan-01 00:00:00.0000,  3.888139730425346E+01,  2.103796260248714E+01,  1.723795933168439E+00,  4.20347059E-03,  5.49408563E-03,  2.98048906E-05,
2531532.500000000, A.D. 2219-Jan-01 00:00:00.0000,  3.842008627635947E+01,  2.185417920334810E+01,  1.726950633911621E+00,  4.32644085E-03,  5.44052347E-03,  3.27928931E-05,
2531897.500000000, A.D. 2220-Jan-01 00:00:00.0000,  3.794253675169086E+01,  2.266091429145805E+01,  1.729284552113372E+00,  4.44871754E-03,  5.38376155E-03,  3.63040224E-05,
2532263.500000000, A.D. 2221-Jan-01 00:00:00.0000,  3.744723198227009E+01,  2.346049527423193E+01,  1.730805348318457E+00,  4.57054623E-03,  5.32363719E-03,  4.02290267E-05,
2532628.500000000, A.D. 2222-Jan-01 00:00:00.0000,  3.693654660905371E+01,  2.424854064459993E+01,  1.731514558728454E+00,  4.69117487E-03,  5.26048751E-03,  4.44535451E-05,
2532993.500000000, A.D. 2223-Jan-01 00:00:00.0000,  3.640866814654918E+01,  2.502692444711590E+01,  1.731432338127859E+00,  4.81085121E-03,  5.19416366E-03,  4.89186974E-05,
2533358.500000000, A.D. 2224-Jan-01 00:00:00.0000,  3.586313408345057E+01,  2.579495348564579E+01,  1.730576064497032E+00,  4.92948905E-03,  5.12467909E-03,  5.35733079E-05,
2533724.500000000, A.D. 2225-Jan-01 00:00:00.0000,  3.529820551322899E+01,  2.655362422471150E+01,  1.728952457722740E+00,  5.04732267E-03,  5.05184617E-03,  5.83925489E-05,
2534089.500000000, A.D. 2226-Jan-01 00:00:00.0000,  3.471728153427102E+01,  2.729759010662234E+01,  1.726573437919461E+00,  5.16362243E-03,  4.97608088E-03,  6.33211209E-05,
2534454.500000000, A.D. 2227-Jan-01 00:00:00.0000,  3.411962501745738E+01,  2.802797387040234E+01,  1.723427997365188E+00,  5.27862690E-03,  4.89720898E-03,  6.83496767E-05,
2534819.500000000, A.D. 2228-Jan-01 00:00:00.0000,  3.350625617877708E+01,  2.874423371949070E+01,  1.719501401536979E+00,  5.39225143E-03,  4.81525366E-03,  7.34605613E-05,
2535185.500000000, A.D. 2229-Jan-01 00:00:00.0000,  3.287636342696240E+01,  2.944814417510768E+01,  1.714766278264429E+00,  5.50471679E-03,  4.73000349E-03,  7.86537504E-05,
2535550.500000000, A.D. 2230-Jan-01 00:00:00.0000,  3.223410572530566E+01,  3.013601561791378E+01,  1.709239032853199E+00,  5.61532420E-03,  4.64195224E-03,  8.38890055E-05,
2535915.500000000, A.D. 2231-Jan-01 00:00:00.0000,  3.157822071684406E+01,  3.081002935200489E+01,  1.702904153576575E+00,  5.72429964E-03,  4.55090122E-03,  8.91704179E-05,
2536280.500000000, A.D. 2232-Jan-01 00:00:00.0000,  3.090887283865738E+01,  3.147044378995615E+01,  1.695765450292000E+00,  5.83156057E-03,  4.45688274E-03,  9.44893384E-05,
2536646.500000000, A.D. 2233-Jan-01 00:00:00.0000,  3.022412394618166E+01,  3.211916959395953E+01,  1.687808648023242E+00,  5.93731177E-03,  4.35966180E-03,  9.98528339E-05,
2537011.500000000, A.D. 2234-Jan-01 00:00:00.0000,  2.952744683169470E+01,  3.275262332846967E+01,  1.679092503578824E+00,  6.04089443E-03,  4.25980681E-03,  1.05224741E-04,
2537376.500000000, A.D. 2235-Jan-01 00:00:00.0000,  2.881661025529141E+01,  3.337227061607053E+01,  1.669615892507210E+00,  6.14252013E-03,  4.15709555E-03,  1.10613441E-04,
2537741.500000000, A.D. 2236-Jan-01 00:00:00.0000,  2.809130379198742E+01,  3.397738910098324E+01,  1.659398284378490E+00,  6.24210989E-03,  4.05156981E-03,  1.16013167E-04,
2538107.500000000, A.D. 2237-Jan-01 00:00:00.0000,  2.734947687235872E+01,  3.456851266104489E+01,  1.648423797099405E+00,  6.33984973E-03,  3.94297302E-03,  1.21433336E-04,
2538472.500000000, A.D. 2238-Jan-01 00:00:00.0000,  2.659569949775441E+01,  3.514129044038984E+01,  1.636756296153896E+00,  6.43512856E-03,  3.83194464E-03,  1.26839237E-04,
2538837.500000000, A.D. 2239-Jan-01 00:00:00.0000,  2.582893980797006E+01,  3.569649215362674E+01,  1.624359396501049E+00,  6.52814099E-03,  3.71823990E-03,  1.32240838E-04,
2539202.500000000, A.D. 2240-Jan-01 00:00:00.0000,  2.505032967026303E+01,  3.623372594638666E+01,  1.611221372524984E+00,  6.61881294E-03,  3.60190947E-03,  1.37633487E-04,
2539568.500000000, A.D. 2241-Jan-01 00:00:00.0000,  2.425874900748056E+01,  3.675441449015808E+01,  1.597290984832886E+00,  6.70730983E-03,  3.48267725E-03,  1.43027391E-04,
2539933.500000000, A.D. 2242-Jan-01 00:00:00.0000,  2.345930977847344E+01,  3.725597422717567E+01,  1.582637844405689E+00,  6.79307592E-03,  3.36125012E-03,  1.48388685E-04,
2540298.500000000, A.D. 2243-Jan-01 00:00:00.0000,  2.265037266432691E+01,  3.774024087322442E+01,  1.567224925155101E+00,  6.87628571E-03,  3.23736296E-03,  1.53727871E-04,
2540663.500000000, A.D. 2244-Jan-01 00:00:00.0000,  2.183218927742867E+01,  3.820757416193934E+01,  1.551057680202961E+00,  6.95687006E-03,  3.11107479E-03,  1.59040800E-04,
2541029.500000000, A.D. 2245-Jan-01 00:00:00.0000,  2.100246986517644E+01,  3.865945785813249E+01,  1.534101934994881E+00,  7.03497114E-03,  2.98209108E-03,  1.64337845E-04,
2541394.500000000, A.D. 2246-Jan-01 00:00:00.0000,  2.016554352554716E+01,  3.909350405077694E+01,  1.516468841888617E+00,  7.11009625E-03,  2.85117991E-03,  1.69586079E-04,
2541759.500000000, A.D. 2247-Jan-01 00:00:00.0000,  1.931883446273521E+01,  3.951072355281622E+01,  1.498136011773829E+00,  7.18239838E-03,  2.71805739E-03,  1.74796107E-04,
2542124.500000000, A.D. 2248-Jan-01 00:00:00.0000,  1.846208642818621E+01,  3.991048280992807E+01,  1.479127755092290E+00,  7.25181501E-03,  2.58279106E-03,  1.79964080E-04,
2542490.500000000, A.D. 2249-Jan-01 00:00:00.0000,  1.759301746381348E+01,  4.029285339298391E+01,  1.459406901913276E+00,  7.31846316E-03,  2.44507151E-03,  1.85100167E-04,
